[{"OBJECT_NAME":"SKYSAT-C6","OBJECT_ID":"2017-068F","EPOCH":"2026-03-09T21:33:49.392576","MEAN_MOTION":15.32504544,"ECCENTRICITY":0.00036369,"INCLINATION":97.44,"RA_OF_ASC_NODE":205.7173,"ARG_OF_PERICENTER":127.5085,"MEAN_ANOMALY":232.6488,"EPHEMERIS_TYPE":0,"CLASSIFICATION_TYPE":"U","NORAD_CAT_ID":42992,"ELEMENT_SET_NO":999,"REV_AT_EPOCH":46710,"BSTAR":0.00039699196,"MEAN_MOTION_DOT":0.0001239,"MEAN_MOTION_DDOT":0},{"OBJECT_NAME":"STARLINK-3674","OBJECT_ID":"2022-025V","EPOCH":"2026-03-09T06:32:05.700480","MEAN_MOTION":15.30177312,"ECCENTRICITY":0.00014249,"INCLINATION":53.1603,"RA_OF_ASC_NODE":25.7727,"ARG_OF_PERICENTER":85.3718,"MEAN_ANOMALY":274.7445,"EPHEMERIS_TYPE":0,"CLASSIFICATION_TYPE":"U","NORAD_CAT_ID":51975,"ELEMENT_SET_NO":999,"REV_AT_EPOCH":22096,"BSTAR":7.3980431e-5,"MEAN_MOTION_DOT":1.831e-5,"MEAN_MOTION_DDOT":0}]
